{
  "type": "FeatureCollection",
  "features": [
    {
      "type": "Feature",
      "properties": {
        "norad_id": 38143,
        "name": "FENGYUN 1C DEB",
        "group": "fengyun-1c-debris",
        "lat": 25.108101796032766,
        "lon": 50.36879581337236,
        "alt_km": 914.72362893645,
        "timestamp": "2025-12-24T18:55:56.358345+00:00",
        "meta_object_name": "FENGYUN 1C DEB",
        "meta_object_id": "1999-025EQQ",
        "meta_epoch": "2025-12-17T09:02:58.047936",
        "meta_mean_motion": 14.0490641,
        "meta_eccentricity": 0.00563343,
        "meta_inclination": 99.0304,
        "meta_ra_of_asc_node": 47.2681,
        "meta_arg_of_pericenter": 207.7954,
        "meta_mean_anomaly": 152.0199,
        "meta_ephemeris_type": 0,
        "meta_classification_type": "U",
        "meta_norad_cat_id": 38143,
        "meta_element_set_no": 999,
        "meta_rev_at_epoch": 60348,
        "meta_bstar": 0.00075665918,
        "meta_mean_motion_dot": 1.189e-05,
        "meta_mean_motion_ddot": 0,
        "tle_line1": "1 38143U 99025EQQ 25351.37706074  .00001189  00000+0  75666-3 0  9995",
        "tle_line2": "2 38143  99.0304  47.2681 0056334 207.7954 152.0199 14.04906410603486"
      },
      "geometry": {
        "type": "Point",
        "coordinates": [
          50.36879581337236,
          25.108101796032766
        ]
      }
    },
    {
      "type": "Feature",
      "properties": {
        "norad_id": 38144,
        "name": "FENGYUN 1C DEB",
        "group": "fengyun-1c-debris",
        "lat": -18.9405659723164,
        "lon": -0.8641412826132354,
        "alt_km": 873.1775718871395,
        "timestamp": "2025-12-24T18:55:56.358355+00:00",
        "meta_object_name": "FENGYUN 1C DEB",
        "meta_object_id": "1999-025EQR",
        "meta_epoch": "2025-12-12T07:21:41.538528",
        "meta_mean_motion": 13.59024242,
        "meta_eccentricity": 0.02903277,
        "meta_inclination": 98.9688,
        "meta_ra_of_asc_node": 170.8072,
        "meta_arg_of_pericenter": 192.7812,
        "meta_mean_anomaly": 166.5857,
        "meta_ephemeris_type": 0,
        "meta_classification_type": "U",
        "meta_norad_cat_id": 38144,
        "meta_element_set_no": 999,
        "meta_rev_at_epoch": 61031,
        "meta_bstar": 0.0024533733,
        "meta_mean_motion_dot": 2.337e-05,
        "meta_mean_motion_ddot": 0,
        "tle_line1": "1 38144U 99025EQR 25346.30673077  .00002337  00000+0  24534-2 0  9992",
        "tle_line2": "2 38144  98.9688 170.8072 0290327 192.7812 166.5857 13.59024242610319"
      },
      "geometry": {
        "type": "Point",
        "coordinates": [
          -0.8641412826132354,
          -18.9405659723164
        ]
      }
    },
    {
      "type": "Feature",
      "properties": {
        "norad_id": 38146,
        "name": "FENGYUN 1C DEB",
        "group": "fengyun-1c-debris",
        "lat": 33.13160770320405,
        "lon": -92.72268675566528,
        "alt_km": 664.0434886762987,
        "timestamp": "2025-12-24T18:55:56.358365+00:00",
        "meta_object_name": "FENGYUN 1C DEB",
        "meta_object_id": "1999-025EQT",
        "meta_epoch": "2025-12-18T00:08:51.919008",
        "meta_mean_motion": 14.59286747,
        "meta_eccentricity": 0.02022294,
        "meta_inclination": 99.4834,
        "meta_ra_of_asc_node": 73.268,
        "meta_arg_of_pericenter": 87.2264,
        "meta_mean_anomaly": 84.0387,
        "meta_ephemeris_type": 0,
        "meta_classification_type": "U",
        "meta_norad_cat_id": 38146,
        "meta_element_set_no": 999,
        "meta_rev_at_epoch": 31956,
        "meta_bstar": 0.00063226228,
        "meta_mean_motion_dot": 3.907e-05,
        "meta_mean_motion_ddot": 0,
        "tle_line1": "1 38146U 99025EQT 25352.00615647  .00003907  00000+0  63226-3 0  9993",
        "tle_line2": "2 38146  99.4834  73.2680 0202229  87.2264  84.0387 14.59286747319560"
      },
      "geometry": {
        "type": "Point",
        "coordinates": [
          -92.72268675566528,
          33.13160770320405
        ]
      }
    },
    {
      "type": "Feature",
      "properties": {
        "norad_id": 38147,
        "name": "FENGYUN 1C DEB",
        "group": "fengyun-1c-debris",
        "lat": -16.523438962945,
        "lon": -169.8772508674273,
        "alt_km": 804.8489999851163,
        "timestamp": "2025-12-24T18:55:56.358375+00:00",
        "meta_object_name": "FENGYUN 1C DEB",
        "meta_object_id": "1999-025EQU",
        "meta_epoch": "2025-12-24T06:11:51.590400",
        "meta_mean_motion": 14.23473632,
        "meta_eccentricity": 0.00496347,
        "meta_inclination": 98.5575,
        "meta_ra_of_asc_node": 12.1669,
        "meta_arg_of_pericenter": 266.0478,
        "meta_mean_anomaly": 93.5026,
        "meta_ephemeris_type": 0,
        "meta_classification_type": "U",
        "meta_norad_cat_id": 38147,
        "meta_element_set_no": 999,
        "meta_rev_at_epoch": 60551,
        "meta_bstar": 0.0005418078,
        "meta_mean_motion_dot": 1.204e-05,
        "meta_mean_motion_ddot": 0,
        "tle_line1": "1 38147U 99025EQU 25358.25823600  .00001204  00000+0  54181-3 0  9995",
        "tle_line2": "2 38147  98.5575  12.1669 0049634 266.0478  93.5026 14.23473632605515"
      },
      "geometry": {
        "type": "Point",
        "coordinates": [
          -169.8772508674273,
          -16.523438962945
        ]
      }
    },
    {
      "type": "Feature",
      "properties": {
        "norad_id": 38149,
        "name": "FENGYUN 1C DEB",
        "group": "fengyun-1c-debris",
        "lat": 80.18995106628108,
        "lon": -67.7616268642039,
        "alt_km": 755.3322545609799,
        "timestamp": "2025-12-24T18:55:56.358386+00:00",
        "meta_object_name": "FENGYUN 1C DEB",
        "meta_object_id": "1999-025EQW",
        "meta_epoch": "2025-12-22T19:22:55.617888",
        "meta_mean_motion": 14.25928139,
        "meta_eccentricity": 0.00784673,
        "meta_inclination": 98.3574,
        "meta_ra_of_asc_node": 348.5776,
        "meta_arg_of_pericenter": 131.8568,
        "meta_mean_anomaly": 228.9346,
        "meta_ephemeris_type": 0,
        "meta_classification_type": "U",
        "meta_norad_cat_id": 38149,
        "meta_element_set_no": 999,
        "meta_rev_at_epoch": 70631,
        "meta_bstar": 0.00017191238,
        "meta_mean_motion_dot": 3.83e-06,
        "meta_mean_motion_ddot": 0,
        "tle_line1": "1 38149U 99025EQW 25356.80758817  .00000383  00000+0  17191-3 0  9990",
        "tle_line2": "2 38149  98.3574 348.5776 0078467 131.8568 228.9346 14.25928139706312"
      },
      "geometry": {
        "type": "Point",
        "coordinates": [
          -67.7616268642039,
          80.18995106628108
        ]
      }
    },
    {
      "type": "Feature",
      "properties": {
        "norad_id": 38155,
        "name": "FENGYUN 1C DEB",
        "group": "fengyun-1c-debris",
        "lat": -13.002444303382653,
        "lon": -95.34821305659956,
        "alt_km": 829.6547312185912,
        "timestamp": "2025-12-24T18:55:56.358396+00:00",
        "meta_object_name": "FENGYUN 1C DEB",
        "meta_object_id": "1999-025ERC",
        "meta_epoch": "2025-12-18T23:08:16.383264",
        "meta_mean_motion": 14.25112386,
        "meta_eccentricity": 0.00979258,
        "meta_inclination": 98.4473,
        "meta_ra_of_asc_node": 257.0769,
        "meta_arg_of_pericenter": 108.7402,
        "meta_mean_anomaly": 252.4435,
        "meta_ephemeris_type": 0,
        "meta_classification_type": "U",
        "meta_norad_cat_id": 38155,
        "meta_element_set_no": 999,
        "meta_rev_at_epoch": 63864,
        "meta_bstar": 0.0016814228,
        "meta_mean_motion_dot": 4.107e-05,
        "meta_mean_motion_ddot": 0,
        "tle_line1": "1 38155U 99025ERC 25352.96407851  .00004107  00000+0  16814-2 0  9997",
        "tle_line2": "2 38155  98.4473 257.0769 0097925 108.7402 252.4435 14.25112386638644"
      },
      "geometry": {
        "type": "Point",
        "coordinates": [
          -95.34821305659956,
          -13.002444303382653
        ]
      }
    },
    {
      "type": "Feature",
      "properties": {
        "norad_id": 38157,
        "name": "FENGYUN 1C DEB",
        "group": "fengyun-1c-debris",
        "lat": -72.6415547020219,
        "lon": 53.888446727918044,
        "alt_km": 1023.2371129918729,
        "timestamp": "2025-12-24T18:55:56.358406+00:00",
        "meta_object_name": "FENGYUN 1C DEB",
        "meta_object_id": "1999-025ERE",
        "meta_epoch": "2025-12-22T04:56:52.679328",
        "meta_mean_motion": 14.21771497,
        "meta_eccentricity": 0.02743434,
        "meta_inclination": 99.6568,
        "meta_ra_of_asc_node": 264.065,
        "meta_arg_of_pericenter": 87.817,
        "meta_mean_anomaly": 275.4389,
        "meta_ephemeris_type": 0,
        "meta_classification_type": "U",
        "meta_norad_cat_id": 38157,
        "meta_element_set_no": 999,
        "meta_rev_at_epoch": 76382,
        "meta_bstar": 0.00067847723,
        "meta_mean_motion_dot": 2.134e-05,
        "meta_mean_motion_ddot": 0,
        "tle_line1": "1 38157U 99025ERE 25356.20616527  .00002134  00000+0  67848-3 0  9994",
        "tle_line2": "2 38157  99.6568 264.0650 0274343  87.8170 275.4389 14.21771497763823"
      },
      "geometry": {
        "type": "Point",
        "coordinates": [
          53.888446727918044,
          -72.6415547020219
        ]
      }
    }
  ]
}